STARLINK-31481          
1 59541U 24074H   26068.12824842 -.00002634  00000+0 -86250-4 0  9995
2 59541  43.0040 346.2485 0001211 247.3805 112.6919 15.27577203105939
AL MUNTHER              
1 63240U 25052AG  26068.64540749  .00017933  00000+0  65015-3 0  9992
2 63240  97.4001 323.9152 0008027 130.7043 229.4895 15.28381521 54798
